{"type": "FeatureCollection", "features": [ {"type": "Feature", "properties": {"norad_id": 45358, "name": "COSMOS 2545 (760)", "group": "glo-ops", "lat": -21.305145050239506, "lon": -51.36960330689099, "alt_km": 19131.908372450307, "timestamp": "2025-12-01T03:58:49.225841+00:00", "meta": {"OBJECT_NAME": "COSMOS 2545 (760)", "OBJECT_ID": "2020-018A", "EPOCH": "2025-11-30T06:11:57.120864", "MEAN_MOTION": 2.13102401, "ECCENTRICITY": 0.00119448, "INCLINATION": 64.4769, "RA_OF_ASC_NODE": 319.4079, "ARG_OF_PERICENTER": 248.2158, "MEAN_ANOMALY": 111.6706, "EPHEMERIS_TYPE": 0, "CLASSIFICATION_TYPE": "U", "NORAD_CAT_ID": 45358, "ELEMENT_SET_NO": 999, "REV_AT_EPOCH": 4442, "BSTAR": 0, "MEAN_MOTION_DOT": -2.2e-07, "MEAN_MOTION_DDOT": 0, "GROUP": "glo-ops"}, "tle": {"line1": "1 45358U 20018A   25334.25830001 -.00000022  00000+0  00000+0 0  9995", "line2": "2 45358  64.4769 319.4079 0011944 248.2158 111.6706  2.13102401 44425"}}, "geometry": {"type": "Point", "coordinates": [-51.36960330689099, -21.305145050239506]}}, {"type": "Feature", "properties": {"norad_id": 46805, "name": "COSMOS 2547 (705K)", "group": "glo-ops", "lat": -10.809076489332341, "lon": 24.28718798542299, "alt_km": 19119.197962205482, "timestamp": "2025-12-01T03:58:49.225893+00:00", "meta": {"OBJECT_NAME": "COSMOS 2547 (705K)", "OBJECT_ID": "2020-075A", "EPOCH": "2025-11-29T23:26:53.746944", "MEAN_MOTION": 2.1309989, "ECCENTRICITY": 0.00063319, "INCLINATION": 64.5957, "RA_OF_ASC_NODE": 199.1228, "ARG_OF_PERICENTER": 229.7361, "MEAN_ANOMALY": 130.2968, "EPHEMERIS_TYPE": 0, "CLASSIFICATION_TYPE": "U", "NORAD_CAT_ID": 46805, "ELEMENT_SET_NO": 999, "REV_AT_EPOCH": 3966, "BSTAR": 0, "MEAN_MOTION_DOT": 8.9e-07, "MEAN_MOTION_DDOT": 0, "GROUP": "glo-ops"}, "tle": {"line1": "1 46805U 20075A   25333.97701096  .00000089  00000+0  00000+0 0  9997", "line2": "2 46805  64.5957 199.1228 0006331 229.7361 130.2968  2.13099890 39660"}}, "geometry": {"type": "Point", "coordinates": [24.28718798542299, -10.809076489332341]}}, {"type": "Feature", "properties": {"norad_id": 52984, "name": "COSMOS 2557 (706K)", "group": "glo-ops", "lat": 54.899874555193, "lon": 4.4358359350694885, "alt_km": 19153.8443212634, "timestamp": "2025-12-01T03:58:49.226116+00:00", "meta": {"OBJECT_NAME": "COSMOS 2557 (706K)", "OBJECT_ID": "2022-075A", "EPOCH": "2025-11-30T03:25:00.343776", "MEAN_MOTION": 2.13101793, "ECCENTRICITY": 0.00137637, "INCLINATION": 64.4168, "RA_OF_ASC_NODE": 321.4948, "ARG_OF_PERICENTER": 276.2798, "MEAN_ANOMALY": 83.5796, "EPHEMERIS_TYPE": 0, "CLASSIFICATION_TYPE": "U", "NORAD_CAT_ID": 52984, "ELEMENT_SET_NO": 999, "REV_AT_EPOCH": 2647, "BSTAR": 0, "MEAN_MOTION_DOT": -2.2e-07, "MEAN_MOTION_DDOT": 0, "GROUP": "glo-ops"}, "tle": {"line1": "1 52984U 22075A   25334.14236509 -.00000022  00000+0  00000+0 0  9994", "line2": "2 52984  64.4168 321.4948 0013763 276.2798  83.5796  2.13101793 26475"}}, "geometry": {"type": "Point", "coordinates": [4.4358359350694885, 54.899874555193]}}, {"type": "Feature", "properties": {"norad_id": 54031, "name": "COSMOS 2559 (707K)", "group": "glo-ops", "lat": -21.495397615264757, "lon": 152.4346207040654, "alt_km": 19102.796315688556, "timestamp": "2025-12-01T03:58:49.226207+00:00", "meta": {"OBJECT_NAME": "COSMOS 2559 (707K)", "OBJECT_ID": "2022-130A", "EPOCH": "2025-11-29T23:04:34.368096", "MEAN_MOTION": 2.13101289, "ECCENTRICITY": 0.00121281, "INCLINATION": 64.3892, "RA_OF_ASC_NODE": 321.591, "ARG_OF_PERICENTER": 192.8743, "MEAN_ANOMALY": 167.1117, "EPHEMERIS_TYPE": 0, "CLASSIFICATION_TYPE": "U", "NORAD_CAT_ID": 54031, "ELEMENT_SET_NO": 999, "REV_AT_EPOCH": 2444, "BSTAR": 0, "MEAN_MOTION_DOT": -2.1e-07, "MEAN_MOTION_DDOT": 0, "GROUP": "glo-ops"}, "tle": {"line1": "1 54031U 22130A   25333.96150889 -.00000021  00000+0  00000+0 0  9995", "line2": "2 54031  64.3892 321.5910 0012128 192.8743 167.1117  2.13101289 24441"}}, "geometry": {"type": "Point", "coordinates": [152.4346207040654, -21.495397615264757]}}, {"type": "Feature", "properties": {"norad_id": 54377, "name": "COSMOS 2564 (761)", "group": "glo-ops", "lat": -32.591106788276676, "lon": -178.27493641894574, "alt_km": 19144.24226451097, "timestamp": "2025-12-01T03:58:49.226237+00:00", "meta": {"OBJECT_NAME": "COSMOS 2564 (761)", "OBJECT_ID": "2022-161A", "EPOCH": "2025-11-30T06:36:03.462048", "MEAN_MOTION": 2.13101973, "ECCENTRICITY": 0.00087535, "INCLINATION": 64.7376, "RA_OF_ASC_NODE": 199.3131, "ARG_OF_PERICENTER": 206.7258, "MEAN_ANOMALY": 153.3182, "EPHEMERIS_TYPE": 0, "CLASSIFICATION_TYPE": "U", "NORAD_CAT_ID": 54377, "ELEMENT_SET_NO": 999, "REV_AT_EPOCH": 2339, "BSTAR": 0, "MEAN_MOTION_DOT": 9.2e-07, "MEAN_MOTION_DDOT": 0, "GROUP": "glo-ops"}, "tle": {"line1": "1 54377U 22161A   25334.27504007  .00000092  00000+0  00000+0 0  9999", "line2": "2 54377  64.7376 199.3131 0008753 206.7258 153.3182  2.13101973 23398"}}, "geometry": {"type": "Point", "coordinates": [-178.27493641894574, -32.591106788276676]}}, {"type": "Feature", "properties": {"norad_id": 57517, "name": "COSMOS 2569 (703K)", "group": "glo-ops", "lat": -41.55658338303773, "lon": 55.124551780912064, "alt_km": 19111.903563911383, "timestamp": "2025-12-01T03:58:49.226413+00:00", "meta": {"OBJECT_NAME": "COSMOS 2569 (703K)", "OBJECT_ID": "2023-114A", "EPOCH": "2025-11-30T06:55:23.654208", "MEAN_MOTION": 2.13103855, "ECCENTRICITY": 0.00100361, "INCLINATION": 65.1875, "RA_OF_ASC_NODE": 79.3343, "ARG_OF_PERICENTER": 287.0032, "MEAN_ANOMALY": 72.8896, "EPHEMERIS_TYPE": 0, "CLASSIFICATION_TYPE": "U", "NORAD_CAT_ID": 57517, "ELEMENT_SET_NO": 999, "REV_AT_EPOCH": 1802, "BSTAR": 0, "MEAN_MOTION_DOT": -4e-08, "MEAN_MOTION_DDOT": 0, "GROUP": "glo-ops"}, "tle": {"line1": "1 57517U 23114A   25334.28846822 -.00000004  00000+0  00000+0 0  9996", "line2": "2 57517  65.1875  79.3343 0010036 287.0032  72.8896  2.13103855 18029"}}, "geometry": {"type": "Point", "coordinates": [55.124551780912064, -41.55658338303773]}}, {"type": "Feature", "properties": {"norad_id": 63130, "name": "COSMOS 2584 (704K)", "group": "glo-ops", "lat": 35.69908581210262, "lon": 99.12829610266388, "alt_km": 19144.719391667604, "timestamp": "2025-12-01T03:58:49.226821+00:00", "meta": {"OBJECT_NAME": "COSMOS 2584 (704K)", "OBJECT_ID": "2025-042A", "EPOCH": "2025-11-26T10:06:10.904256", "MEAN_MOTION": 2.13103062, "ECCENTRICITY": 0.00075218, "INCLINATION": 64.9668, "RA_OF_ASC_NODE": 79.7019, "ARG_OF_PERICENTER": 212.3772, "MEAN_ANOMALY": 147.585, "EPHEMERIS_TYPE": 0, "CLASSIFICATION_TYPE": "U", "NORAD_CAT_ID": 63130, "ELEMENT_SET_NO": 999, "REV_AT_EPOCH": 572, "BSTAR": 0, "MEAN_MOTION_DOT": 1.8e-07, "MEAN_MOTION_DDOT": 0, "GROUP": "glo-ops"}, "tle": {"line1": "1 63130U 25042A   25330.42095954  .00000018  00000+0  00000+0 0  9994", "line2": "2 63130  64.9668  79.7019 0007521 212.3772 147.5850  2.13103062  5728"}}, "geometry": {"type": "Point", "coordinates": [99.12829610266388, 35.69908581210262]}}, {"type": "Feature", "properties": {"norad_id": 65590, "name": "COSMOS 2596 (708K)", "group": "glo-ops", "lat": 19.213999228130337, "lon": 132.40544620197716, "alt_km": 19157.787866879735, "timestamp": "2025-12-01T03:58:49.227071+00:00", "meta": {"OBJECT_NAME": "COSMOS 2596 (708K)", "OBJECT_ID": "2025-206B", "EPOCH": "2025-11-30T02:09:16.622208", "MEAN_MOTION": 2.13100321, "ECCENTRICITY": 0.00140792, "INCLINATION": 64.7512, "RA_OF_ASC_NODE": 321.9152, "ARG_OF_PERICENTER": 304.6953, "MEAN_ANOMALY": 108.4937, "EPHEMERIS_TYPE": 0, "CLASSIFICATION_TYPE": "U", "NORAD_CAT_ID": 65590, "ELEMENT_SET_NO": 999, "REV_AT_EPOCH": 166, "BSTAR": 0, "MEAN_MOTION_DOT": -2.1e-07, "MEAN_MOTION_DDOT": 0, "GROUP": "glo-ops"}, "tle": {"line1": "1 65590U 25206B   25334.08977572 -.00000021  00000+0  00000+0 0  9994", "line2": "2 65590  64.7512 321.9152 0014079 304.6953 108.4937  2.13100321  1664"}}, "geometry": {"type": "Point", "coordinates": [132.40544620197716, 19.213999228130337]}}]}